STARLINK-31031          
1 58711U 24002G   24031.48080370  .00023118  00000+0  84412-3 0  9996
2 58711  53.1601 113.2469 0001762  80.2080 279.9119 15.28041393  5469
STARLINK-31029          
1 58712U 24002H   24031.51355937  .00019460  00000+0  71298-3 0  9998
2 58712  53.1575 113.4428 0001743  87.0521 273.0678 15.28037721  5466
STARLINK-30973          
1 58713U 24002J   24031.51321334  .00071896  00000+0  25807-2 0  9998
2 58713  53.1583 113.4406 0001835  89.8803 270.2407 15.28051844  5581
STARLINK-31100          
1 58714U 24002K   24031.50886854  .00047202  00000+0  17037-2 0  9991
2 58714  53.1573 113.4085 0001809 110.6232 249.4962 15.28063236  5621
STARLINK-31102          
1 58715U 24002L   24030.72362754  .00000977  00000+0  47921-4 0  9998
2 58715  53.1575 117.0434 0001479  79.6107 280.5059 15.28022379  5491
STARLINK-31098          
1 58716U 24002M   24031.50419030  .00067204  00000+0  24142-2 0  9990
2 58716  53.1588 113.3828 0001886  98.1930 261.9284 15.28057293  5579
STARLINK-31093          
1 58717U 24002N   24031.48513436  .00009108  00000+0  34097-3 0  9993
2 58717  53.1636 113.2630 0001834  82.1358 277.9850 15.28031586  5465
STARLINK-31097          
1 58718U 24002P   24031.49951634  .00021683  00000+0  79237-3 0  9998
2 58718  53.1602 113.3576 0001768  85.5361 274.5841 15.28053882  5585
STARLINK-31051          
1 58719U 24002Q   24031.49917522  .00064749  00000+0  23280-2 0  9993
2 58719  53.1601 113.3489 0001717  86.7035 273.4161 15.28046726  5462
STARLINK-31027          
1 58720U 24002R   24031.49484615  .00017950  00000+0  65923-3 0  9990
2 58720  53.1606 113.3224 0001821 113.3667 246.7524 15.28014647  5463
STARLINK-30972          
1 58721U 24002S   24031.49449647  .00032785  00000+0  11899-2 0  9992
2 58721  53.1603 113.3224 0001983 113.7737 246.3471 15.28051877  5588
STARLINK-31040          
1 58722U 24002T   24031.49015989  .00042304  00000+0  15308-2 0  9998
2 58722  53.1610 113.2931 0002405  56.7930 303.3300 15.28028577  5588
STARLINK-31033          
1 58723U 24002U   24031.48045783  .00053491  00000+0  19278-2 0  9992
2 58723  53.1613 113.2286 0002926  33.4517 326.6667 15.28054500  5451
STARLINK-30893          
1 58724U 24002V   24031.48982976  .00034967  00000+0  12691-2 0  9996
2 58724  53.1621 113.2921 0001948  85.9748 274.1475 15.28019964  5468
