[
  {
    "OBJECT_NAME": "STARLINK-31031",
    "OBJECT_ID": "2024-002G",
    "EPOCH": "2024-01-31T11:32:21.439680",
    "MEAN_MOTION": 15.28041393,
    "ECCENTRICITY": 0.0001762,
    "INCLINATION": 53.1601,
    "RA_OF_ASC_NODE": 113.2469,
    "ARG_OF_PERICENTER": 80.208,
    "MEAN_ANOMALY": 279.9119,
    "EPHEMERIS_TYPE": 0,
    "CLASSIFICATION_TYPE": "U",
    "NORAD_CAT_ID": 58711,
    "ELEMENT_SET_NO": 999,
    "REV_AT_EPOCH": 546,
    "BSTAR": 0.00084412,
    "MEAN_MOTION_DOT": 0.00023118,
    "MEAN_MOTION_DDOT": 0
  },
  {
    "OBJECT_NAME": "STARLINK-31029",
    "OBJECT_ID": "2024-002H",
    "EPOCH": "2024-01-31T12:19:31.529568",
    "MEAN_MOTION": 15.28037721,
    "ECCENTRICITY": 0.0001743,
    "INCLINATION": 53.1575,
    "RA_OF_ASC_NODE": 113.4428,
    "ARG_OF_PERICENTER": 87.0521,
    "MEAN_ANOMALY": 273.0678,
    "EPHEMERIS_TYPE": 0,
    "CLASSIFICATION_TYPE": "U",
    "NORAD_CAT_ID": 58712,
    "ELEMENT_SET_NO": 999,
    "REV_AT_EPOCH": 546,
    "BSTAR": 0.00071298,
    "MEAN_MOTION_DOT": 0.0001946,
    "MEAN_MOTION_DDOT": 0
  },
  {
    "OBJECT_NAME": "STARLINK-30973",
    "OBJECT_ID": "2024-002J",
    "EPOCH": "2024-01-31T12:19:01.632576",
    "MEAN_MOTION": 15.28051844,
    "ECCENTRICITY": 0.0001835,
    "INCLINATION": 53.1583,
    "RA_OF_ASC_NODE": 113.4406,
    "ARG_OF_PERICENTER": 89.8803,
    "MEAN_ANOMALY": 270.2407,
    "EPHEMERIS_TYPE": 0,
    "CLASSIFICATION_TYPE": "U",
    "NORAD_CAT_ID": 58713,
    "ELEMENT_SET_NO": 999,
    "REV_AT_EPOCH": 558,
    "BSTAR": 0.0025807,
    "MEAN_MOTION_DOT": 0.00071896,
    "MEAN_MOTION_DDOT": 0
  },
  {
    "OBJECT_NAME": "STARLINK-31100",
    "OBJECT_ID": "2024-002K",
    "EPOCH": "2024-01-31T12:12:46.241856",
    "MEAN_MOTION": 15.28063236,
    "ECCENTRICITY": 0.0001809,
    "INCLINATION": 53.1573,
    "RA_OF_ASC_NODE": 113.4085,
    "ARG_OF_PERICENTER": 110.6232,
    "MEAN_ANOMALY": 249.4962,
    "EPHEMERIS_TYPE": 0,
    "CLASSIFICATION_TYPE": "U",
    "NORAD_CAT_ID": 58714,
    "ELEMENT_SET_NO": 999,
    "REV_AT_EPOCH": 562,
    "BSTAR": 0.0017037,
    "MEAN_MOTION_DOT": 0.00047202,
    "MEAN_MOTION_DDOT": 0
  },
  {
    "OBJECT_NAME": "STARLINK-31102",
    "OBJECT_ID": "2024-002L",
    "EPOCH": "2024-01-30T17:22:01.419456",
    "MEAN_MOTION": 15.28022379,
    "ECCENTRICITY": 0.0001479,
    "INCLINATION": 53.1575,
    "RA_OF_ASC_NODE": 117.0434,
    "ARG_OF_PERICENTER": 79.6107,
    "MEAN_ANOMALY": 280.5059,
    "EPHEMERIS_TYPE": 0,
    "CLASSIFICATION_TYPE": "U",
    "NORAD_CAT_ID": 58715,
    "ELEMENT_SET_NO": 999,
    "REV_AT_EPOCH": 549,
    "BSTAR": 4.7921e-05,
    "MEAN_MOTION_DOT": 9.77e-06,
    "MEAN_MOTION_DDOT": 0
  },
  {
    "OBJECT_NAME": "STARLINK-31098",
    "OBJECT_ID": "2024-002M",
    "EPOCH": "2024-01-31T12:06:02.041920",
    "MEAN_MOTION": 15.28057293,
    "ECCENTRICITY": 0.0001886,
    "INCLINATION": 53.1588,
    "RA_OF_ASC_NODE": 113.3828,
    "ARG_OF_PERICENTER": 98.193,
    "MEAN_ANOMALY": 261.9284,
    "EPHEMERIS_TYPE": 0,
    "CLASSIFICATION_TYPE": "U",
    "NORAD_CAT_ID": 58716,
    "ELEMENT_SET_NO": 999,
    "REV_AT_EPOCH": 557,
    "BSTAR": 0.0024142,
    "MEAN_MOTION_DOT": 0.00067204,
    "MEAN_MOTION_DDOT": 0
  },
  {
    "OBJECT_NAME": "STARLINK-31093",
    "OBJECT_ID": "2024-002N",
    "EPOCH": "2024-01-31T11:38:35.608704",
    "MEAN_MOTION": 15.28031586,
    "ECCENTRICITY": 0.0001834,
    "INCLINATION": 53.1636,
    "RA_OF_ASC_NODE": 113.263,
    "ARG_OF_PERICENTER": 82.1358,
    "MEAN_ANOMALY": 277.985,
    "EPHEMERIS_TYPE": 0,
    "CLASSIFICATION_TYPE": "U",
    "NORAD_CAT_ID": 58717,
    "ELEMENT_SET_NO": 999,
    "REV_AT_EPOCH": 546,
    "BSTAR": 0.00034097,
    "MEAN_MOTION_DOT": 9.108e-05,
    "MEAN_MOTION_DDOT": 0
  },
  {
    "OBJECT_NAME": "STARLINK-31097",
    "OBJECT_ID": "2024-002P",
    "EPOCH": "2024-01-31T11:59:18.211776",
    "MEAN_MOTION": 15.28053882,
    "ECCENTRICITY": 0.0001768,
    "INCLINATION": 53.1602,
    "RA_OF_ASC_NODE": 113.3576,
    "ARG_OF_PERICENTER": 85.5361,
    "MEAN_ANOMALY": 274.5841,
    "EPHEMERIS_TYPE": 0,
    "CLASSIFICATION_TYPE": "U",
    "NORAD_CAT_ID": 58718,
    "ELEMENT_SET_NO": 999,
    "REV_AT_EPOCH": 558,
    "BSTAR": 0.00079237,
    "MEAN_MOTION_DOT": 0.00021683,
    "MEAN_MOTION_DDOT": 0
  },
  {
    "OBJECT_NAME": "STARLINK-31051",
    "OBJECT_ID": "2024-002Q",
    "EPOCH": "2024-01-31T11:58:48.739008",
    "MEAN_MOTION": 15.28046726,
    "ECCENTRICITY": 0.0001717,
    "INCLINATION": 53.1601,
    "RA_OF_ASC_NODE": 113.3489,
    "ARG_OF_PERICENTER": 86.7035,
    "MEAN_ANOMALY": 273.4161,
    "EPHEMERIS_TYPE": 0,
    "CLASSIFICATION_TYPE": "U",
    "NORAD_CAT_ID": 58719,
    "ELEMENT_SET_NO": 999,
    "REV_AT_EPOCH": 546,
    "BSTAR": 0.002328,
    "MEAN_MOTION_DOT": 0.00064749,
    "MEAN_MOTION_DDOT": 0
  },
  {
    "OBJECT_NAME": "STARLINK-31027",
    "OBJECT_ID": "2024-002R",
    "EPOCH": "2024-01-31T11:52:34.707360",
    "MEAN_MOTION": 15.28014647,
    "ECCENTRICITY": 0.0001821,
    "INCLINATION": 53.1606,
    "RA_OF_ASC_NODE": 113.3224,
    "ARG_OF_PERICENTER": 113.3667,
    "MEAN_ANOMALY": 246.7524,
    "EPHEMERIS_TYPE": 0,
    "CLASSIFICATION_TYPE": "U",
    "NORAD_CAT_ID": 58720,
    "ELEMENT_SET_NO": 999,
    "REV_AT_EPOCH": 546,
    "BSTAR": 0.00065923,
    "MEAN_MOTION_DOT": 0.0001795,
    "MEAN_MOTION_DDOT": 0
  },
  {
    "OBJECT_NAME": "STARLINK-30972",
    "OBJECT_ID": "2024-002S",
    "EPOCH": "2024-01-31T11:52:04.495008",
    "MEAN_MOTION": 15.28051877,
    "ECCENTRICITY": 0.0001983,
    "INCLINATION": 53.1603,
    "RA_OF_ASC_NODE": 113.3224,
    "ARG_OF_PERICENTER": 113.7737,
    "MEAN_ANOMALY": 246.3471,
    "EPHEMERIS_TYPE": 0,
    "CLASSIFICATION_TYPE": "U",
    "NORAD_CAT_ID": 58721,
    "ELEMENT_SET_NO": 999,
    "REV_AT_EPOCH": 558,
    "BSTAR": 0.0011899,
    "MEAN_MOTION_DOT": 0.00032785,
    "MEAN_MOTION_DDOT": 0
  },
  {
    "OBJECT_NAME": "STARLINK-31040",
    "OBJECT_ID": "2024-002T",
    "EPOCH": "2024-01-31T11:45:49.814496",
    "MEAN_MOTION": 15.28028577,
    "ECCENTRICITY": 0.0002405,
    "INCLINATION": 53.161,
    "RA_OF_ASC_NODE": 113.2931,
    "ARG_OF_PERICENTER": 56.793,
    "MEAN_ANOMALY": 303.33,
    "EPHEMERIS_TYPE": 0,
    "CLASSIFICATION_TYPE": "U",
    "NORAD_CAT_ID": 58722,
    "ELEMENT_SET_NO": 999,
    "REV_AT_EPOCH": 558,
    "BSTAR": 0.0015308,
    "MEAN_MOTION_DOT": 0.00042304,
    "MEAN_MOTION_DDOT": 0
  },
  {
    "OBJECT_NAME": "STARLINK-31033",
    "OBJECT_ID": "2024-002U",
    "EPOCH": "2024-01-31T11:31:51.556512",
    "MEAN_MOTION": 15.280545,
    "ECCENTRICITY": 0.0002926,
    "INCLINATION": 53.1613,
    "RA_OF_ASC_NODE": 113.2286,
    "ARG_OF_PERICENTER": 33.4517,
    "MEAN_ANOMALY": 326.6667,
    "EPHEMERIS_TYPE": 0,
    "CLASSIFICATION_TYPE": "U",
    "NORAD_CAT_ID": 58723,
    "ELEMENT_SET_NO": 999,
    "REV_AT_EPOCH": 545,
    "BSTAR": 0.0019278,
    "MEAN_MOTION_DOT": 0.00053491,
    "MEAN_MOTION_DDOT": 0
  },
  {
    "OBJECT_NAME": "STARLINK-30893",
    "OBJECT_ID": "2024-002V",
    "EPOCH": "2024-01-31T11:45:21.291264",
    "MEAN_MOTION": 15.28019964,
    "ECCENTRICITY": 0.0001948,
    "INCLINATION": 53.1621,
    "RA_OF_ASC_NODE": 113.2921,
    "ARG_OF_PERICENTER": 85.9748,
    "MEAN_ANOMALY": 274.1475,
    "EPHEMERIS_TYPE": 0,
    "CLASSIFICATION_TYPE": "U",
    "NORAD_CAT_ID": 58724,
    "ELEMENT_SET_NO": 999,
    "REV_AT_EPOCH": 546,
    "BSTAR": 0.0012691,
    "MEAN_MOTION_DOT": 0.00034967,
    "MEAN_MOTION_DDOT": 0
  }
]